NORAD_CAT_ID,OBJECT_NAME,OBJECT_TYPE,EPOCH,MEAN_MOTION,ECCENTRICITY,INCLINATION,RA_OF_ASC_NODE,ARG_OF_PERICENTER,MEAN_ANOMALY,BSTAR,MEAN_MOTION_DOT,MEAN_MOTION_DDOT,TLE_LINE0,TLE_LINE1,TLE_LINE2,SEMIMAJOR_AXIS,PERIOD,APOGEE,PERIGEE,DECAYED
54779.0,STARLINK-5447,PAYLOAD,2023-02-19 14:00:01,15.42352674,0.0001319,53.2156,352.655,86.053,37.0577,-0.022423,-0.00903237,0.0,0 STARLINK-5447,1 54779U 22175X   23050.58334491 -.00903237  00000-0 -22423-1 0  9996,2 54779  53.2156 352.6550 0001319  86.0530  37.0577 15.42352674  1300,6817.305,93.364,440.069,438.271,0.0
54779.0,STARLINK-5447,PAYLOAD,2023-02-19 22:00:00,15.41730022,0.0001459,53.2156,351.0808,91.8764,82.6993,-0.023975,-0.0094225,0.0,0 STARLINK-5447,1 54779U 22175X   23050.91667824 -.00942250  00000-0 -23975-1 0  9993,2 54779  53.2156 351.0808 0001459  91.8764  82.6993 15.41730022  9792,6819.14,93.402,442.0,440.01,0.0
54779.0,STARLINK-5447,PAYLOAD,2023-02-20 14:00:01,15.40397466,0.0001309,53.2152,347.9367,95.1964,180.0018,-0.023794,-0.00898117,0.0,0 STARLINK-5447,1 54779U 22175X   23051.58334491 -.00898117  00000-0 -23794-1 0  9999,2 54779  53.2152 347.9367 0001309  95.1964 180.0018 15.40397466  1305,6823.072,93.482,445.831,444.044,0.0
54779.0,STARLINK-5447,PAYLOAD,2023-02-20 22:00:01,15.39777647,0.0001269,53.2151,346.3673,98.6234,225.7577,-0.025672,-0.00945002,0.0,0 STARLINK-5447,1 54779U 22175X   23051.91668981 -.00945002  00000-0 -25672-1 0  9993,2 54779  53.2151 346.3673 0001269  98.6234 225.7577 15.39777647  9957,6824.903,93.52,447.634,445.902,0.0
54779.0,STARLINK-5447,PAYLOAD,2023-02-21 14:00:01,15.38437756,0.0001213,53.2146,343.2324,94.3053,325.9422,-0.025045,-0.00886949,0.0,0 STARLINK-5447,1 54779U 22175X   23052.58334491 -.00886949  00000-0 -25045-1 0  9991,2 54779  53.2146 343.2324 0001213  94.3053 325.9422 15.38437756  1307,6828.865,93.601,451.559,449.902,0.0
54779.0,STARLINK-5447,PAYLOAD,2023-02-21 22:00:00,15.37824227,0.0001321,53.2145,341.6678,94.5713,12.4468,-0.027446,-0.00947153,0.0,0 STARLINK-5447,1 54779U 22175X   23052.91667824 -.00947153  00000-0 -27446-1 0  9999,2 54779  53.2145 341.6678 0001321  94.5713  12.4468 15.37824227 10103,6830.682,93.639,453.449,451.644,0.0
54779.0,STARLINK-5447,PAYLOAD,2023-02-22 00:00:00,15.3764819,0.0001417,53.2144,341.2773,95.1171,113.4808,-0.027126,-0.00932105,0.0,0 STARLINK-5447,1 54779U 22175X   23053.00001157 -.00932105  00000-0 -27126-1 0  9997,2 54779  53.2144 341.2773 0001417  95.1171 113.4808 15.37648190  1300,6831.203,93.65,454.036,452.1,0.0
54779.0,STARLINK-5447,PAYLOAD,2023-02-22 14:00:01,15.36482561,0.0001353,53.2142,338.5419,100.3652,97.8891,-0.026549,-0.00882495,0.0,0 STARLINK-5447,1 54779U 22175X   23053.58334491 -.00882495  00000-0 -26549-1 0  9994,2 54779  53.2142 338.5419 0001353 100.3652  97.8891 15.36482561 10210,6834.657,93.721,457.447,455.598,0.0
54779.0,STARLINK-5447,PAYLOAD,2023-02-22 22:00:00,15.35870188,0.0001392,53.2143,336.9821,102.7057,139.9724,-0.029218,-0.00946316,0.0,0 STARLINK-5447,1 54779U 22175X   23053.91667824 -.00946316  00000-0 -29218-1 0  9999,2 54779  53.2143 336.9821 0001392 102.7057 139.9724 15.35870188  1306,6836.474,93.758,459.291,457.387,0.0
54779.0,STARLINK-5447,PAYLOAD,2023-02-23 06:00:00,15.35188195,0.0001224,53.214,335.4245,95.8075,190.5318,-0.027739,-0.00884143,0.0,0 STARLINK-5447,1 54779U 22175X   23054.25001157 -.00884143  00000-0 -27739-1 0  9993,2 54779  53.2140 335.4245 0001224  95.8075 190.5318 15.35188195 10316,6838.499,93.8,461.201,459.527,0.0
54779.0,STARLINK-5447,PAYLOAD,2023-02-23 14:00:01,15.34522133,0.0001224,53.2142,333.8652,107.0196,222.2031,-0.027864,-0.00870496,0.0,0 STARLINK-5447,1 54779U 22175X   23054.58334491 -.00870496  00000-0 -27864-1 0  9994,2 54779  53.2142 333.8652 0001224 107.0196 222.2031 15.34522133  1309,6840.477,93.84,463.18,461.505,0.0
54779.0,STARLINK-5447,PAYLOAD,2023-02-23 22:00:00,15.33921763,0.0001235,53.2143,332.3101,101.5347,269.7611,-0.031457,-0.00956099,0.0,0 STARLINK-5447,1 54779U 22175X   23054.91667824 -.00956099  00000-0 -31457-1 0  9997,2 54779  53.2143 332.3101 0001235 101.5347 269.7611 15.33921763 10415,6842.262,93.877,464.972,463.282,0.0
54779.0,STARLINK-5447,PAYLOAD,2023-02-24 14:00:01,15.32568407,0.0001196,53.2144,329.2023,99.9428,353.2043,-0.029518,-0.00866893,0.0,0 STARLINK-5447,1 54779U 22175X   23055.58334491 -.00866893  00000-0 -29518-1 0  9999,2 54779  53.2144 329.2023 0001196  99.9428 353.2043 15.32568407 10510,6846.29,93.96,468.973,467.336,0.0
54779.0,STARLINK-5447,PAYLOAD,2023-02-24 22:00:00,15.31964561,0.000136,53.2146,327.6519,95.459,37.4176,-0.033335,-0.00964909,0.0,0 STARLINK-5447,1 54779U 22175X   23055.91667824 -.00964909  00000-0 -33335-1 0  9994,2 54779  53.2146 327.6519 0001360  95.4590  37.4176 15.31964561  1303,6848.088,93.997,470.885,469.022,0.0
54779.0,STARLINK-5447,PAYLOAD,2023-02-25 06:00:00,15.31297886,0.0001364,53.2145,326.1032,89.2189,82.6169,-0.032289,-0.00907515,0.0,0 STARLINK-5447,1 54779U 22175X   23056.25001157 -.00907515  00000-0 -32289-1 0  9990,2 54779  53.2145 326.1032 0001364  89.2189  82.6169 15.31297886 10612,6850.076,94.038,472.875,471.007,0.0
54779.0,STARLINK-5447,PAYLOAD,2023-02-25 14:00:01,15.30617037,0.0001312,53.2146,324.553,102.3493,107.681,-0.031399,-0.00867279,0.0,0 STARLINK-5447,1 54779U 22175X   23056.58334491 -.00867279  00000-0 -31399-1 0  9999,2 54779  53.2146 324.5530 0001312 102.3493 107.6810 15.30617037  1306,6852.107,94.08,474.871,473.073,0.0
54779.0,STARLINK-5447,PAYLOAD,2023-02-25 22:00:00,15.30001891,0.0001303,53.2149,323.0075,100.1093,147.3081,-0.034817,-0.00949011,0.0,0 STARLINK-5447,1 54779U 22175X   23056.91667824 -.00949011  00000-0 -34817-1 0  9998,2 54779  53.2149 323.0075 0001303 100.1093 147.3081 15.30001891 10721,6853.944,94.118,476.702,474.916,0.0
54779.0,STARLINK-5447,PAYLOAD,2023-02-26 14:00:01,15.28663752,0.0001143,53.215,319.9177,105.076,214.7974,-0.033279,-0.0086527,0.0,0 STARLINK-5447,1 54779U 22175X   23057.58334491 -.00865270  00000-0 -33279-1 0  9998,2 54779  53.2150 319.9177 0001143 105.0760 214.7974 15.28663752 10825,6857.943,94.2,480.592,479.024,0.0
54779.0,STARLINK-5447,PAYLOAD,2023-02-27 00:00:00,15.27863901,0.0001241,53.2151,317.992,87.1259,6.4346,-0.035608,-0.00900231,0.0,0 STARLINK-5447,1 54779U 22175X   23058.00001157 -.00900231  00000-0 -35608-1 0  9991,2 54779  53.2151 317.9920 0001241  87.1259   6.4346 15.27863901  1301,6860.336,94.249,483.052,481.35,0.0
54779.0,STARLINK-5447,PAYLOAD,2023-02-27 06:00:00,15.27408471,0.000115,53.2151,316.8369,83.3616,305.8094,-0.037627,-0.00946887,0.0,0 STARLINK-5447,1 54779U 22175X   23058.25001157 -.00946887  00000-0 -37627-1 0  9998,2 54779  53.2151 316.8369 0001150  83.3616 305.8094 15.27408471 10921,6861.7,94.277,484.354,482.776,0.0
54779.0,STARLINK-5447,PAYLOAD,2023-02-27 14:00:01,15.26712942,0.0001133,53.2152,315.2961,95.0917,327.5845,-0.035472,-0.0086845,0.0,0 STARLINK-5447,1 54779U 22175X   23058.58334491 -.00868450  00000-0 -35472-1 0  9999,2 54779  53.2152 315.2961 0001133  95.0917 327.5845 15.26712942  1305,6863.784,94.32,486.426,484.871,0.0
54779.0,STARLINK-5447,PAYLOAD,2023-02-27 22:00:01,15.26091062,0.0001226,53.2153,313.7601,88.5892,6.847,-0.03899,-0.00942892,0.0,0 STARLINK-5447,1 54779U 22175X   23058.91668981 -.00942892  00000-0 -38990-1 0  9991,2 54779  53.2153 313.7601 0001226  88.5892   6.8470 15.26091062  1306,6865.648,94.359,488.355,486.671,0.0
54779.0,STARLINK-5447,PAYLOAD,2023-02-28 14:00:01,15.24768625,0.0001305,53.2152,310.6886,93.0186,65.4157,-0.038185,-0.00891088,0.0,0 STARLINK-5447,1 54779U 22175X   23059.58334491 -.00891088  00000-0 -38185-1 0  9997,2 54779  53.2152 310.6886 0001305  93.0186  65.4157 15.24768625 11129,6869.617,94.441,492.379,490.586,0.0
54779.0,STARLINK-5447,PAYLOAD,2023-02-28 22:00:00,15.24130896,0.0001334,53.2154,309.1573,87.9868,100.8042,-0.040818,-0.00931313,0.0,0 STARLINK-5447,1 54779U 22175X   23059.91667824 -.00931313  00000-0 -40818-1 0  9995,2 54779  53.2154 309.1573 0001334  87.9868 100.8042 15.24130896  1307,6871.533,94.48,494.315,492.482,0.0
54779.0,STARLINK-5447,PAYLOAD,2023-03-01 06:00:00,15.23511487,0.0001314,53.2152,307.6261,85.5489,132.7998,-0.043286,-0.009666,0.0,0 STARLINK-5447,1 54779U 22175X   23060.25001157 -.00966600  00000-0 -43286-1 0  9994,2 54779  53.2152 307.6261 0001314  85.5489 132.7998 15.23511487 11238,6873.396,94.518,496.164,494.358,0.0
54779.0,STARLINK-5447,PAYLOAD,2023-03-01 22:00:00,15.22173473,0.0001282,53.2154,304.5683,89.4698,185.6977,-0.042866,-0.00923186,0.0,0 STARLINK-5447,1 54779U 22175X   23060.91667824 -.00923186  00000-0 -42866-1 0  9991,2 54779  53.2154 304.5683 0001282  89.4698 185.6977 15.22173473 11336,6877.423,94.602,500.17,498.406,0.0
54779.0,STARLINK-5447,PAYLOAD,2023-03-02 00:00:00,15.21993983,0.0001206,53.2155,304.1868,82.1381,289.9115,-0.041278,-0.00886956,0.0,0 STARLINK-5447,1 54779U 22175X   23061.00001157 -.00886956  00000-0 -41278-1 0  9992,2 54779  53.2155 304.1868 0001206  82.1381 289.9115 15.21993983  1306,6877.964,94.613,500.658,498.999,0.0
54779.0,STARLINK-5447,PAYLOAD,2023-03-02 20:00:01,15.20400478,0.0001327,53.2153,300.3733,90.4253,167.7298,-0.046572,-0.0094975,0.0,0 STARLINK-5447,1 54779U 22175X   23061.83334491 -.00949750  00000-0 -46572-1 0  9997,2 54779  53.2153 300.3733 0001327  90.4253 167.7298 15.20400478  1303,6882.769,94.712,505.547,503.72,0.0
54779.0,STARLINK-5447,PAYLOAD,2023-03-03 08:00:01,15.19426424,0.0001253,53.2153,298.0898,79.3932,36.0797,-0.04788,-0.00949018,0.0,0 STARLINK-5447,1 54779U 22175X   23062.33334491 -.00949018  00000-0 -47880-1 0  9993,2 54779  53.2153 298.0898 0001253  79.3932  36.0797 15.19426424 11542,6885.71,94.773,508.438,506.712,0.0
54779.0,STARLINK-5447,PAYLOAD,2023-03-03 14:00:01,15.18915836,0.0001176,53.2152,296.9486,87.0933,316.3828,-0.045806,-0.00898333,0.0,0 STARLINK-5447,1 54779U 22175X   23062.58334491 -.00898333  00000-0 -45806-1 0  9999,2 54779  53.2152 296.9486 0001176  87.0933 316.3828 15.18915836  1303,6887.253,94.804,509.928,508.308,0.0
